ERS-1                   
1 21574U 91050A   26087.81277464  .00000319  00000+0  11667-3 0  9992
2 21574  98.7865 106.5272 0032687 144.0339 216.3057 14.39463407818481
ARIANE 40 R/B           
1 21610U 91050F   26087.88757686  .00000314  00000+0  10656-3 0  9991
2 21610  98.1972 139.4000 0003536  37.5512 322.5925 14.42907230821769
INTERCOSMOS 25          
1 21819U 91086A   26087.64354057  .00001793  00000+0  34483-3 0  9996
2 21819  82.6014 298.5497 1486527  76.0950 300.0535 12.12062559498985
SL-8 R/B                
1 21876U 92008B   26087.85611767  .00000009  00000+0 -70082-5 0  9998
2 21876  82.9230 253.5166 0035871  81.6279  27.6824 13.75969536712053
SL-8 R/B                
1 21938U 92020B   26087.68978015  .00000035  00000+0  20803-4 0  9997
2 21938  82.9303 139.6545 0027766 243.2562 240.3609 13.75550510703742
USA 81                  
1 21949U 92023A   26087.79977999  .00000177  00000+0  58074-4 0  9992
2 21949  85.0047 120.4128 0001784  68.1176 292.0206 14.32373938 97525
COSMOS 2219             
1 22219U 92076A   26087.90321803 -.00000239  00000+0 -10069-3 0  9993
2 22219  71.0623 337.9074 0017916 178.8085 181.3083 14.14090780721098
SL-16 R/B               
1 22220U 92076B   26087.92291951 -.00000126  00000+0 -39047-4 0  9990
2 22220  70.9997 147.8625 0010695  60.3557 119.2967 14.16863914724552
COSMOS 2221             
1 22236U 92080A   26087.56331441  .00002628  00000+0  22990-3 0  9996
2 22236  82.5006 260.9964 0015475 126.2240 234.0415 14.96277668783613
SL-16 R/B               
1 22285U 92093B   26087.89109387  .00000189  00000+0  12122-3 0  9998
2 22285  71.0230 323.9597 0006497 275.0288  85.0093 14.15454604715877
COSMOS 2228             
1 22286U 92094A   26087.90120830  .00003250  00000+0  27753-3 0  9996
2 22286  82.5184 218.9155 0016836 234.6007 125.3644 14.97287377778931
SL-16 R/B               
1 22566U 93016B   26087.65071696 -.00000019  00000+0  14582-4 0  9997
2 22566  71.0077 175.3604 0012345 289.6398  70.3392 14.15305427704851
