CCSDS_OMM_VERS = 2.0
CREATION_DATE  = 
ORIGINATOR     = 

OBJECT_NAME    = ERS-1
OBJECT_ID      = 1991-050A
CENTER_NAME    = EARTH
REF_FRAME      = TEME
TIME_SYSTEM    = UTC
MEAN_ELEMENT_THEORY = SGP/SGP4

EPOCH          = 2026-03-28T19:30:23.728896
MEAN_MOTION    = 14.39463407
ECCENTRICITY   = .00326876
INCLINATION    = 98.7865
RA_OF_ASC_NODE = 106.5272
ARG_OF_PERICENTER = 144.0339
MEAN_ANOMALY   = 216.3057

EPHEMERIS_TYPE = 0
CLASSIFICATION_TYPE = U
NORAD_CAT_ID   = 21574
ELEMENT_SET_NO = 999
REV_AT_EPOCH   = 81848
BSTAR          = .11666916E-3
MEAN_MOTION_DOT = .319E-5
MEAN_MOTION_DDOT = 0

CCSDS_OMM_VERS = 2.0
CREATION_DATE  = 
ORIGINATOR     = 

OBJECT_NAME    = ARIANE 40 R/B
OBJECT_ID      = 1991-050F
CENTER_NAME    = EARTH
REF_FRAME      = TEME
TIME_SYSTEM    = UTC
MEAN_ELEMENT_THEORY = SGP/SGP4

EPOCH          = 2026-03-28T21:18:06.640704
MEAN_MOTION    = 14.42907230
ECCENTRICITY   = .00035362
INCLINATION    = 98.1972
RA_OF_ASC_NODE = 139.4000
ARG_OF_PERICENTER = 37.5512
MEAN_ANOMALY   = 322.5925

EPHEMERIS_TYPE = 0
CLASSIFICATION_TYPE = U
NORAD_CAT_ID   = 21610
ELEMENT_SET_NO = 999
REV_AT_EPOCH   = 82176
BSTAR          = .10655539E-3
MEAN_MOTION_DOT = .314E-5
MEAN_MOTION_DDOT = 0

CCSDS_OMM_VERS = 2.0
CREATION_DATE  = 
ORIGINATOR     = 

OBJECT_NAME    = INTERCOSMOS 25
OBJECT_ID      = 1991-086A
CENTER_NAME    = EARTH
REF_FRAME      = TEME
TIME_SYSTEM    = UTC
MEAN_ELEMENT_THEORY = SGP/SGP4

EPOCH          = 2026-03-28T15:26:41.905248
MEAN_MOTION    = 12.12062559
ECCENTRICITY   = .1486527
INCLINATION    = 82.6014
RA_OF_ASC_NODE = 298.5497
ARG_OF_PERICENTER = 76.0950
MEAN_ANOMALY   = 300.0535

EPHEMERIS_TYPE = 0
CLASSIFICATION_TYPE = U
NORAD_CAT_ID   = 21819
ELEMENT_SET_NO = 999
REV_AT_EPOCH   = 49898
BSTAR          = .34483E-3
MEAN_MOTION_DOT = .1793E-4
MEAN_MOTION_DDOT = 0

CCSDS_OMM_VERS = 2.0
CREATION_DATE  = 
ORIGINATOR     = 

OBJECT_NAME    = SL-8 R/B
OBJECT_ID      = 1992-008B
CENTER_NAME    = EARTH
REF_FRAME      = TEME
TIME_SYSTEM    = UTC
MEAN_ELEMENT_THEORY = SGP/SGP4

EPOCH          = 2026-03-28T20:32:48.566688
MEAN_MOTION    = 13.75969536
ECCENTRICITY   = .00358718
INCLINATION    = 82.9230
RA_OF_ASC_NODE = 253.5166
ARG_OF_PERICENTER = 81.6279
MEAN_ANOMALY   = 27.6824

EPHEMERIS_TYPE = 0
CLASSIFICATION_TYPE = U
NORAD_CAT_ID   = 21876
ELEMENT_SET_NO = 999
REV_AT_EPOCH   = 71205
BSTAR          = -.7008182E-5
MEAN_MOTION_DOT = .9E-7
MEAN_MOTION_DDOT = 0

CCSDS_OMM_VERS = 2.0
CREATION_DATE  = 
ORIGINATOR     = 

OBJECT_NAME    = SL-8 R/B
OBJECT_ID      = 1992-020B
CENTER_NAME    = EARTH
REF_FRAME      = TEME
TIME_SYSTEM    = UTC
MEAN_ELEMENT_THEORY = SGP/SGP4

EPOCH          = 2026-03-28T16:33:17.004960
MEAN_MOTION    = 13.75550510
ECCENTRICITY   = .00277668
INCLINATION    = 82.9303
RA_OF_ASC_NODE = 139.6545
ARG_OF_PERICENTER = 243.2562
MEAN_ANOMALY   = 240.3609

EPHEMERIS_TYPE = 0
CLASSIFICATION_TYPE = U
NORAD_CAT_ID   = 21938
ELEMENT_SET_NO = 999
REV_AT_EPOCH   = 70374
BSTAR          = .20803054E-4
MEAN_MOTION_DOT = .35E-6
MEAN_MOTION_DDOT = 0

CCSDS_OMM_VERS = 2.0
CREATION_DATE  = 
ORIGINATOR     = 

OBJECT_NAME    = USA 81
OBJECT_ID      = 1992-023A
CENTER_NAME    = EARTH
REF_FRAME      = TEME
TIME_SYSTEM    = UTC
MEAN_ELEMENT_THEORY = SGP/SGP4

EPOCH          = 2026-03-28T19:11:40.991136
MEAN_MOTION    = 14.32373938
ECCENTRICITY   = .00017849
INCLINATION    = 85.0047
RA_OF_ASC_NODE = 120.4128
ARG_OF_PERICENTER = 68.1176
MEAN_ANOMALY   = 292.0206

EPHEMERIS_TYPE = 0
CLASSIFICATION_TYPE = U
NORAD_CAT_ID   = 21949
ELEMENT_SET_NO = 999
REV_AT_EPOCH   = 9752
BSTAR          = .5807393E-4
MEAN_MOTION_DOT = .177E-5
MEAN_MOTION_DDOT = 0

CCSDS_OMM_VERS = 2.0
CREATION_DATE  = 
ORIGINATOR     = 

OBJECT_NAME    = COSMOS 2219
OBJECT_ID      = 1992-076A
CENTER_NAME    = EARTH
REF_FRAME      = TEME
TIME_SYSTEM    = UTC
MEAN_ELEMENT_THEORY = SGP/SGP4

EPOCH          = 2026-03-28T21:40:38.037792
MEAN_MOTION    = 14.14090780
ECCENTRICITY   = .00179161
INCLINATION    = 71.0623
RA_OF_ASC_NODE = 337.9074
ARG_OF_PERICENTER = 178.8085
MEAN_ANOMALY   = 181.3083

EPHEMERIS_TYPE = 0
CLASSIFICATION_TYPE = U
NORAD_CAT_ID   = 22219
ELEMENT_SET_NO = 999
REV_AT_EPOCH   = 72109
BSTAR          = -.10068561E-3
MEAN_MOTION_DOT = -.239E-5
MEAN_MOTION_DDOT = 0

CCSDS_OMM_VERS = 2.0
CREATION_DATE  = 
ORIGINATOR     = 

OBJECT_NAME    = SL-16 R/B
OBJECT_ID      = 1992-076B
CENTER_NAME    = EARTH
REF_FRAME      = TEME
TIME_SYSTEM    = UTC
MEAN_ELEMENT_THEORY = SGP/SGP4

EPOCH          = 2026-03-28T22:09:00.245664
MEAN_MOTION    = 14.16863914
ECCENTRICITY   = .00106959
INCLINATION    = 70.9997
RA_OF_ASC_NODE = 147.8625
ARG_OF_PERICENTER = 60.3557
MEAN_ANOMALY   = 119.2967

EPHEMERIS_TYPE = 0
CLASSIFICATION_TYPE = U
NORAD_CAT_ID   = 22220
ELEMENT_SET_NO = 999
REV_AT_EPOCH   = 72455
BSTAR          = -.39046636E-4
MEAN_MOTION_DOT = -.126E-5
MEAN_MOTION_DDOT = 0

CCSDS_OMM_VERS = 2.0
CREATION_DATE  = 
ORIGINATOR     = 

OBJECT_NAME    = COSMOS 2221
OBJECT_ID      = 1992-080A
CENTER_NAME    = EARTH
REF_FRAME      = TEME
TIME_SYSTEM    = UTC
MEAN_ELEMENT_THEORY = SGP/SGP4

EPOCH          = 2026-03-28T13:31:10.365024
MEAN_MOTION    = 14.96277668
ECCENTRICITY   = .0015475
INCLINATION    = 82.5006
RA_OF_ASC_NODE = 260.9964
ARG_OF_PERICENTER = 126.2240
MEAN_ANOMALY   = 234.0415

EPHEMERIS_TYPE = 0
CLASSIFICATION_TYPE = U
NORAD_CAT_ID   = 22236
ELEMENT_SET_NO = 999
REV_AT_EPOCH   = 78361
BSTAR          = .2299E-3
MEAN_MOTION_DOT = .2628E-4
MEAN_MOTION_DDOT = 0

CCSDS_OMM_VERS = 2.0
CREATION_DATE  = 
ORIGINATOR     = 

OBJECT_NAME    = SL-16 R/B
OBJECT_ID      = 1992-093B
CENTER_NAME    = EARTH
REF_FRAME      = TEME
TIME_SYSTEM    = UTC
MEAN_ELEMENT_THEORY = SGP/SGP4

EPOCH          = 2026-03-28T21:23:10.510368
MEAN_MOTION    = 14.15454604
ECCENTRICITY   = .00064977
INCLINATION    = 71.0230
RA_OF_ASC_NODE = 323.9597
ARG_OF_PERICENTER = 275.0288
MEAN_ANOMALY   = 85.0093

EPHEMERIS_TYPE = 0
CLASSIFICATION_TYPE = U
NORAD_CAT_ID   = 22285
ELEMENT_SET_NO = 999
REV_AT_EPOCH   = 71587
BSTAR          = .12121555E-3
MEAN_MOTION_DOT = .189E-5
MEAN_MOTION_DDOT = 0

CCSDS_OMM_VERS = 2.0
CREATION_DATE  = 
ORIGINATOR     = 

OBJECT_NAME    = COSMOS 2228
OBJECT_ID      = 1992-094A
CENTER_NAME    = EARTH
REF_FRAME      = TEME
TIME_SYSTEM    = UTC
MEAN_ELEMENT_THEORY = SGP/SGP4

EPOCH          = 2026-03-28T21:37:44.397120
MEAN_MOTION    = 14.97287377
ECCENTRICITY   = .00168364
INCLINATION    = 82.5184
RA_OF_ASC_NODE = 218.9155
ARG_OF_PERICENTER = 234.6007
MEAN_ANOMALY   = 125.3644

EPHEMERIS_TYPE = 0
CLASSIFICATION_TYPE = U
NORAD_CAT_ID   = 22286
ELEMENT_SET_NO = 999
REV_AT_EPOCH   = 77893
BSTAR          = .27752682E-3
MEAN_MOTION_DOT = .325E-4
MEAN_MOTION_DDOT = 0

CCSDS_OMM_VERS = 2.0
CREATION_DATE  = 
ORIGINATOR     = 

OBJECT_NAME    = SL-16 R/B
OBJECT_ID      = 1993-016B
CENTER_NAME    = EARTH
REF_FRAME      = TEME
TIME_SYSTEM    = UTC
MEAN_ELEMENT_THEORY = SGP/SGP4

EPOCH          = 2026-03-28T15:37:01.945344
MEAN_MOTION    = 14.15305427
ECCENTRICITY   = .0012345
INCLINATION    = 71.0077
RA_OF_ASC_NODE = 175.3604
ARG_OF_PERICENTER = 289.6398
MEAN_ANOMALY   = 70.3392

EPHEMERIS_TYPE = 0
CLASSIFICATION_TYPE = U
NORAD_CAT_ID   = 22566
ELEMENT_SET_NO = 999
REV_AT_EPOCH   = 70485
BSTAR          = .14582E-4
MEAN_MOTION_DOT = -.19E-6
MEAN_MOTION_DDOT = 0

